[{"OBJECT_NAME":"STARLINK-1443","OBJECT_ID":"2020-035D","EPOCH":"2026-03-09T23:27:23.665536","MEAN_MOTION":15.25229052,"ECCENTRICITY":0.00031812,"INCLINATION":53.14,"RA_OF_ASC_NODE":63.586,"ARG_OF_PERICENTER":47.856,"MEAN_ANOMALY":312.2708,"EPHEMERIS_TYPE":0,"CLASSIFICATION_TYPE":"U","NORAD_CAT_ID":45660,"ELEMENT_SET_NO":999,"REV_AT_EPOCH":31880,"BSTAR":0.001163622,"MEAN_MOTION_DOT":0.00029398,"MEAN_MOTION_DDOT":0},{"OBJECT_NAME":"COSMOS 546","OBJECT_ID":"1973-005A","EPOCH":"2026-03-09T21:40:39.247392","MEAN_MOTION":15.29707303,"ECCENTRICITY":0.00147738,"INCLINATION":50.6327,"RA_OF_ASC_NODE":289.914,"ARG_OF_PERICENTER":261.1516,"MEAN_ANOMALY":98.7778,"EPHEMERIS_TYPE":0,"CLASSIFICATION_TYPE":"U","NORAD_CAT_ID":6350,"ELEMENT_SET_NO":999,"REV_AT_EPOCH":92802,"BSTAR":9.142057e-5,"MEAN_MOTION_DOT":2.316e-5,"MEAN_MOTION_DDOT":0}]
